NORAD_CAT_ID,OBJECT_NAME,OBJECT_TYPE,EPOCH,MEAN_MOTION,ECCENTRICITY,INCLINATION,RA_OF_ASC_NODE,ARG_OF_PERICENTER,MEAN_ANOMALY,BSTAR,MEAN_MOTION_DOT,MEAN_MOTION_DDOT,TLE_LINE0,TLE_LINE1,TLE_LINE2,SEMIMAJOR_AXIS,PERIOD,APOGEE,PERIGEE,DECAYED
51117.0,STARLINK-3391,PAYLOAD,2022-07-22 01:49:27,15.08825594,0.0001604,53.2171,124.5137,53.7459,306.3681,2.2101e-05,6.4e-07,0.0,0 STARLINK-3391,1 51117U 22005P   22203.07601210  .00000064  00000-0  22101-4 0  9990,2 51117  53.2171 124.5137 0001604  53.7459 306.3681 15.08825594 28603,6917.924,95.438,540.899,538.68,0.0
51117.0,STARLINK-3391,PAYLOAD,2022-07-22 11:21:45,15.08833093,0.0001675999999999,53.2166,122.7289,51.0739,309.0402,1.9053e-06,-2.58e-06,0.0,0 STARLINK-3391,1 51117U 22005P   22203.47344732 -.00000258  00000-0  19053-5 0  9996,2 51117  53.2166 122.7289 0001676  51.0739 309.0402 15.08833093 29779,6917.901999999999,95.438,540.9259999999998,538.607,0.0
51117.0,STARLINK-3391,PAYLOAD,2022-07-22 19:18:41,15.08837547,0.0001591,53.2176,121.2422,53.4081,306.7057,0.00012856,1.758e-05,0.0,0 STARLINK-3391,1 51117U 22005P   22203.80464558  .00001758  00000-0  12856-3 0  9999,2 51117  53.2176 121.2422 0001591  53.4081 306.7057 15.08837547 28716,6917.888000000001,95.438,540.854,538.6519999999998,0.0
51117.0,STARLINK-3391,PAYLOAD,2022-07-23 12:47:55,15.08848004,0.0001686,53.2162,117.9717,53.9366,306.1782,0.00040119,6.104e-05,0.0,0 STARLINK-3391,1 51117U 22005P   22204.53328564  .00006104  00000-0  40119-3 0  9999,2 51117  53.2162 117.9717 0001686  53.9366 306.1782 15.08848004 29930,6917.856,95.437,540.887,538.555,0.0
51117.0,STARLINK-3391,PAYLOAD,2022-07-24 12:38:43,15.08835862,0.0001635,53.2166,113.5115,54.2733,305.8411,-7.3272e-06,-4.05e-06,0.0,0 STARLINK-3391,1 51117U 22005P   22205.52689117 -.00000405  00000-0 -73272-5 0  9991,2 51117  53.2166 113.5115 0001635  54.2733 305.8411 15.08835862 28970,6917.893,95.438,540.889,538.627,0.0
51117.0,STARLINK-3391,PAYLOAD,2022-07-24 20:35:39,15.08838714,0.0001706999999999,53.2163,112.0246,55.499,304.6163,4.5112e-05,4.3e-06,0.0,0 STARLINK-3391,1 51117U 22005P   22205.85809043  .00000430  00000-0  45112-4 0  9996,2 51117  53.2163 112.0246 0001707  55.4990 304.6163 15.08838714 29021,6917.884,95.438,540.93,538.568,0.0
51117.0,STARLINK-3391,PAYLOAD,2022-07-25 02:57:11,15.08843519,0.0001704,53.2166,110.8354,55.6389,304.4764,0.00015407,2.165e-05,0.0,0 STARLINK-3391,1 51117U 22005P   22206.12305008  .00002165  00000-0  15407-3 0  9999,2 51117  53.2166 110.8354 0001704  55.6389 304.4764 15.08843519 30173,6917.87,95.437,540.913,538.556,0.0
51117.0,STARLINK-3391,PAYLOAD,2022-07-25 18:51:02,15.08848444,0.0001721999999999,53.2167,107.8618,55.9318,304.1837,0.0003782,5.738e-05,0.0,0 STARLINK-3391,1 51117U 22005P   22206.78544910  .00005738  00000-0  37820-3 0  9990,2 51117  53.2167 107.8618 0001722  55.9318 304.1837 15.08848444 29165,6917.855,95.437,540.911,538.528,0.0
51117.0,STARLINK-3391,PAYLOAD,2022-07-26 02:47:58,15.08847604,0.0001679,53.2168,106.3751,60.3546,299.7613,0.00066083,0.00010247,0.0,0 STARLINK-3391,1 51117U 22005P   22207.11665120  .00010247  00000-0  66083-3 0  9999,2 51117  53.2168 106.3751 0001679  60.3546 299.7613 15.08847604 29216,6917.857,95.437,540.884,538.561,0.0
51117.0,STARLINK-3391,PAYLOAD,2022-07-26 17:06:26,15.08838777,0.0001781,53.217,103.6986,56.787,303.3292,6.9877e-05,8.24e-06,0.0,0 STARLINK-3391,1 51117U 22005P   22207.71281244  .00000824  00000-0  69877-4 0  9991,2 51117  53.2170 103.6986 0001781  56.7870 303.3292 15.08838777 30412,6917.884,95.438,540.981,538.5169999999998,0.0
51117.0,STARLINK-3391,PAYLOAD,2022-07-26 18:41:50,15.08841095,0.0001792,53.2169,103.4013,56.9784,303.138,0.00010713,1.417e-05,0.0,0 STARLINK-3391,1 51117U 22005P   22207.77905152  .00001417  00000-0  10713-3 0  9991,2 51117  53.2169 103.4013 0001792  56.9784 303.1380 15.08841095 29317,6917.877,95.437,540.982,538.502,0.0
51117.0,STARLINK-3391,PAYLOAD,2022-07-27 12:11:04,15.08850013,0.0001814,53.2172,100.1307,55.6587,304.4577,0.0002249,3.294e-05,0.0,0 STARLINK-3391,1 51117U 22005P   22208.50768700  .00003294  00000-0  22490-3 0  9999,2 51117  53.2172 100.1307 0001814  55.6587 304.4577 15.08850013 29427,6917.85,95.437,540.97,538.46,0.0
51117.0,STARLINK-3391,PAYLOAD,2022-07-27 18:32:36,15.08852969,0.0001776999999999,53.2173,98.941,57.2968,302.8195,0.00024219,3.5700000000000014e-05,0.0,0 STARLINK-3391,1 51117U 22005P   22208.77264419  .00003570  00000-0  24219-3 0  9994,2 51117  53.2173  98.9410 0001777  57.2968 302.8195 15.08852969 29460,6917.840999999999,95.437,540.935,538.476,0.0
51117.0,STARLINK-3391,PAYLOAD,2022-07-28 02:29:32,15.08841692,0.0001748,53.2176,97.4545,55.0986,305.017,-4.2292e-06,-3.55e-06,0.0,0 STARLINK-3391,1 51117U 22005P   22209.10384762 -.00000355  00000-0 -42292-5 0  9999,2 51117  53.2176  97.4545 0001748  55.0986 305.0170 15.08841692 30629,6917.875,95.437,540.9490000000002,538.531,0.0
51117.0,STARLINK-3391,PAYLOAD,2022-07-28 18:23:23,15.0884305,0.0001729,53.218,94.4812,55.9983,304.1173,0.00010941,1.454e-05,0.0,0 STARLINK-3391,1 51117U 22005P   22209.76624616  .00001454  00000-0  10941-3 0  9999,2 51117  53.2180  94.4812 0001729  55.9983 304.1173 15.08843050 29613,6917.871,95.437,540.932,538.54,0.0
51117.0,STARLINK-3391,PAYLOAD,2022-07-29 08:41:52,15.0883302,0.0001841999999999,53.2182,91.8032,62.5104,297.6075,-1.0364e-05,-4.53e-06,0.0,0 STARLINK-3391,1 51117U 22005P   22210.36241470 -.00000453  00000-0 -10364-4 0  9990,2 51117  53.2182  91.8032 0001842  62.5104 297.6075 15.08833020 30812,6917.901999999999,95.438,541.0409999999998,538.492,0.0
51117.0,STARLINK-3391,PAYLOAD,2022-07-29 16:38:48,15.08837345,0.0001665,53.2177,90.3169,60.0663,300.0494,-4.245e-05,-9.64e-06,0.0,0 STARLINK-3391,1 51117U 22005P   22210.69361241 -.00000964  00000-0 -42450-4 0  9993,2 51117  53.2177  90.3169 0001665  60.0663 300.0494 15.08837345 29756,6917.889,95.438,540.905,538.602,0.0
51117.0,STARLINK-3391,PAYLOAD,2022-07-30 08:32:39,15.08836342,0.0001761999999999,53.2181,87.3438,57.0934,303.0228,7.8918e-05,9.68e-06,0.0,0 STARLINK-3391,1 51117U 22005P   22211.35601250  .00000968  00000-0  78918-4 0  9994,2 51117  53.2181  87.3438 0001762  57.0934 303.0228 15.08836342 29856,6917.892,95.438,540.976,538.538,0.0
51117.0,STARLINK-3391,PAYLOAD,2022-07-30 18:04:58,15.08840324,0.0001678,53.2179,85.5595,59.4383,300.6775,6.9172e-05,8.13e-06,0.0,0 STARLINK-3391,1 51117U 22005P   22211.75345042  .00000813  00000-0  69172-4 0  9993,2 51117  53.2179  85.5595 0001678  59.4383 300.6775 15.08840324 31024,6917.879,95.438,540.905,538.5840000000002,0.0
51117.0,STARLINK-3391,PAYLOAD,2022-07-31 09:58:49,15.08840487,0.0001689,53.2178,82.5862,58.87300000000001,301.2428,0.00018519,2.661e-05,0.0,0 STARLINK-3391,1 51117U 22005P   22212.41584857  .00002661  00000-0  18519-3 0  9997,2 51117  53.2178  82.5862 0001689  58.8730 301.2428 15.08840487 30018,6917.879,95.438,540.9119999999998,538.575,0.0
51117.0,STARLINK-3391,PAYLOAD,2022-07-31 17:55:45,15.08832935,0.0001704,53.2177,81.0991,58.9544,301.1616,8.7422e-05,1.103e-05,0.0,0 STARLINK-3391,1 51117U 22005P   22212.74705660  .00001103  00000-0  87422-4 0  9990,2 51117  53.2177  81.0991 0001704  58.9544 301.1616 15.08832935 31171,6917.901999999999,95.438,540.946,538.5880000000002,0.0
51117.0,STARLINK-3391,PAYLOAD,2022-08-01 08:14:14,15.08834136,0.0001699,53.2178,78.4229,59.8615,300.2546,4.8578e-05,4.85e-06,0.0,0 STARLINK-3391,1 51117U 22005P   22213.34321880  .00000485  00000-0  48578-4 0  9996,2 51117  53.2178  78.4229 0001699  59.8615 300.2546 15.08834136 30152,6917.898,95.438,540.939,538.5880000000002,0.0
51117.0,STARLINK-3391,PAYLOAD,2022-08-01 20:57:18,15.08839622,0.0001694,53.2178,76.0438,60.8001,299.3161,6.2438e-05,7.06e-06,0.0,0 STARLINK-3391,1 51117U 22005P   22213.87313585  .00000706  00000-0  62438-4 0  9994,2 51117  53.2178  76.0438 0001694  60.8001 299.3161 15.08839622 31342,6917.882,95.438,540.918,538.575,0.0
51117.0,STARLINK-3391,PAYLOAD,2022-08-02 11:15:46,15.08841499,0.0001668,53.2179,73.3676,60.761,299.3548,0.00010216,1.338e-05,0.0,0 STARLINK-3391,1 51117U 22005P   22214.46929296  .00001338  00000-0  10216-3 0  9990,2 51117  53.2179  73.3676 0001668  60.7610 299.3548 15.08841499 30324,6917.876,95.437,540.895,538.587,0.0
51117.0,STARLINK-3391,PAYLOAD,2022-08-02 17:37:19,15.08843535,0.0001696,53.2178,72.1783,61.2575,298.8587,0.00011288,1.509e-05,0.0,0 STARLINK-3391,1 51117U 22005P   22214.73425143  .00001509  00000-0  11288-3 0  9992,2 51117  53.2178  72.1783 0001696  61.2575 298.8587 15.08843535 30360,6917.87,95.437,540.908,538.561,0.0
51117.0,STARLINK-3391,PAYLOAD,2022-08-03 09:31:10,15.08848391,0.0001736,53.2178,69.205,61.1919,298.9247,0.00018191,2.609e-05,0.0,0 STARLINK-3391,1 51117U 22005P   22215.39664664  .00002609  00000-0  18191-3 0  9990,2 51117  53.2178  69.2050 0001736  61.1919 298.9247 15.08848391 31573,6917.855,95.437,540.9209999999998,538.519,0.0
51117.0,STARLINK-3391,PAYLOAD,2022-08-03 15:52:43,15.0883855,0.0001744,53.2176,68.0155,62.3061,297.8108,6.3273e-05,7.19e-06,0.0,0 STARLINK-3391,1 51117U 22005P   22215.66161534  .00000719  00000-0  63273-4 0  9990,2 51117  53.2176  68.0155 0001744  62.3061 297.8108 15.08838550 31619,6917.885,95.438,540.956,538.543,0.0
51117.0,STARLINK-3391,PAYLOAD,2022-08-04 09:21:57,15.0884191,0.0001674,53.2179,64.7442,62.8464,297.2699,4.9151e-05,4.94e-06,0.0,0 STARLINK-3391,1 51117U 22005P   22216.39025272  .00000494  00000-0  49151-4 0  9998,2 51117  53.2179  64.7442 0001674  62.8464 297.2699 15.08841910 30610,6917.875,95.437,540.898,538.581,0.0
51117.0,STARLINK-3391,PAYLOAD,2022-08-04 15:43:30,15.08844907,0.0001675,53.2178,63.5546,63.6241,296.4923,4.3071e-05,3.98e-06,0.0,0 STARLINK-3391,1 51117U 22005P   22216.65521041  .00000398  00000-0  43071-4 0  9990,2 51117  53.2178  63.5546 0001675  63.6241 296.4923 15.08844907 30658,6917.865,95.437,540.889,538.572,0.0
